177P/Barnard,e,31.1606,272.0491,60.6358,24.41112,0.0081719,0.95409095,28.7092,04/05.0/2016,2000,g 15.0,4.0
# From MPC 87068
178P/Hug-Bell,e,10.9698,103.4433,296.6812,3.660709,0.1407202,0.47500443,138.8914,04/05.0/2016,2000,g 13.5,4.0
# From MPC 75723
179P/Jedicke,e,19.8680,115.5606,296.3356,5.943843,0.0680147,0.30558585,207.4313,04/05.0/2016,2000,g  2.5,8.0
# From MPC 98565
180P/NEAT,e,16.8707,84.5721,94.8703,3.858738,0.1300278,0.35489411,14.8651,04/05.0/2016,2000,g 11.0,4.0
# From MPC 89012
181P/Shoemaker-Levy,e,17.1999,36.3901,335.2599,3.856024,0.1301651,0.70727021,86.4873,04/05.0/2016,2000,g 11.5,4.0
# From MPC 88331
182P/LONEOS,e,16.2395,72.8039,53.8644,2.962236,0.1933190,0.65964416,288.1586,04/05.0/2016,2000,g 18.0,4.0
# From NK 2735
183P/Korlevic-Juric,e,18.7540,5.8441,161.0990,4.486455,0.1037168,0.13663569,299.4019,04/05.0/2016,2000,g 12.5,2.0
# From MPC 86232
184P/Lovas,e,4.4564,173.8354,186.4541,3.726879,0.1369891,0.57676841,134.8514,04/05.0/2016,2000,g 13.5,4.0
# From MPC 94676
185P/Petriew,e,13.9938,214.0984,181.9226,3.100824,0.1805046,0.69867283,240.3541,04/05.0/2016,2000,g 15.0,4.0
# From MPC 75723
186P/Garradd,e,28.5060,327.3117,285.2121,4.982722,0.0886143,0.12111218,259.0082,04/05.0/2016,2000,g  7.5,4.0
# From MPC 75724
187P/LINEAR,e,13.6162,110.8060,134.9616,4.583129,0.1004526,0.15748050,279.7529,04/05.0/2016,2000,g  9.0,4.0
# From MPC 75724
188P/LINEAR-Mueller,e,10.5116,358.9811,26.8000,4.383333,0.1073983,0.41485971,325.8306,04/05.0/2016,2000,g 11.5,4.0
# From NK 2724
189P/NEAT,e,20.0854,281.8690,16.1372,2.946440,0.1948757,0.58874815,264.9463,04/05.0/2016,2000,g 19.0,4.0
# From MPC 75724
190P/Mueller,e,2.1727,335.5545,50.4199,4.242762,0.1127797,0.52078482,359.6768,04/05.0/2016,2000,g 13.0,4.0
# From MPC 92277
191P/McNaught,e,8.7074,106.0296,275.5043,3.547659,0.1474998,0.42122178,102.9293,04/05.0/2016,2000,g 13.0,4.0
# From MPC 75724
192P/Shoemaker-Levy,e,24.5201,51.6557,312.9750,6.476483,0.0597992,0.77158205,181.7517,04/05.0/2016,2000,g 15.0,4.0
# From MPC 91618
193P/LINEAR-NEAT,e,10.6871,335.1933,8.4183,3.574736,0.1458270,0.39402592,72.5396,04/05.0/2016,2000,g 14.0,4.0
# From MPC 98566
194P/LINEAR,e,11.1380,351.9940,130.7093,3.999580,0.1232204,0.57552495,4.1356,04/05.0/2016,2000,g 16.0,4.0
# From MPC 75724
195P/Hill,e,36.3553,243.1361,249.6885,6.481657,0.0597276,0.31582627,157.0235,04/05.0/2016,2000,g  8.5,4.0
# From MPC 92985
196P/Tichy,e,19.3778,24.2538,11.9827,3.774775,0.1343902,0.43432097,39.6598,04/05.0/2016,2000,g 13.5,4.0
# From MPC 94676
197P/LINEAR,e,25.5525,66.3907,188.6955,2.865058,0.2032375,0.62987052,225.0519,04/05.0/2016,2000,g 16.5,2.0
# From MPC 65937
198P/ODAS,e,1.3394,358.3403,69.3299,3.599333,0.1443348,0.44332585,218.1221,04/05.0/2016,2000,g 12.5,4.0
# From MPC 75725
199P/Shoemaker,e,24.8998,92.3645,191.4446,5.911965,0.0685656,0.50385798,175.9331,04/05.0/2016,2000,g 10.0,4.0
# From MPC 75725
200P/Larsen,e,12.1065,234.8031,133.9668,4.930345,0.0900302,0.33076393,251.0539,04/05.0/2016,2000,g  9.0,4.0
# From MPC 93588
201P/LONEOS,e,7.0414,35.1882,25.0305,3.458005,0.1532730,0.61347109,68.3978,04/05.0/2016,2000,g 14.0,4.0
# From MPC 75725
202P/Scotti,e,2.1882,194.5257,255.7361,3.770102,0.1346401,0.33203235,350.9803,04/05.0/2016,2000,g 13.5,4.0
# From MPC 75725
203P/Korlevic,e,2.9762,290.3915,155.1306,4.662141,0.0979098,0.31527978,219.9231,04/05.0/2016,2000,g 14.5,2.0
# From MPC 98566
204P/LINEAR-NEAT,e,6.5883,109.0671,355.0892,3.656510,0.1409626,0.47228561,16.2649,04/05.0/2016,2000,g 14.0,4.0
# From MPC 98566
205P/Giacobini,e,15.2851,179.6186,154.2160,3.547128,0.1475329,0.56682756,48.2508,04/05.0/2016,2000,g 13.0,4.0
# From MPC 75725
206P/Barnard-Boattini,e,33.0362,203.9362,181.6867,3.241197,0.1689064,0.64686871,98.9521,04/05.0/2016,2000,g 19.0,4.0
# From MPC 75725
207P/NEAT,e,10.1607,200.5468,271.2799,3.876804,0.1291200,0.75818571,348.7301,04/05.0/2016,2000,g 16.0,4.0
# From MPC 75725
208P/McMillan,e,4.4075,36.4157,310.5196,4.052627,0.1208090,0.37212521,349.3961,04/05.0/2016,2000,g 12.5,4.0
# From MPC 90771
209P/LINEAR,e,21.2443,62.7894,152.4326,2.963145,0.1932301,0.67308527,135.1640,04/05.0/2016,2000,g 17.0,2.0
# From MPC 89013
210P/Christensen,e,10.2383,93.8269,345.8278,3.170381,0.1745971,0.83226575,104.2089,04/05.0/2016,2000,g 13.5,4.0
# From MPC 96868
211P/Hill,e,18.8862,117.2679,4.4383,3.559200,0.1467829,0.33959340,10.0776,04/05.0/2016,2000,g 12.5,4.0
# From MPC 75726
212P/NEAT,e,22.4275,98.8870,15.0739,3.916965,0.1271392,0.58013596,339.8608,04/05.0/2016,2000,g 17.0,2.0
# From MPC 88331
213P/Van Ness,e,10.3846,311.4243,5.2461,3.352827,0.1605415,0.40743690,273.8054,04/05.0/2016,2000,g 10.5,4.0
# From MPC 92986
214P/LINEAR,e,15.2052,348.2664,190.2380,3.611630,0.1435983,0.48734791,20.7234,04/05.0/2016,2000,g 13.0,4.0
# From MPC 81861
215P/NEAT,e,10.0888,60.3676,256.0235,4.356259,0.1084011,0.19261058,221.3187,04/05.0/2016,2000,g 11.0,4.0
# From MPC 84322
216P/LINEAR,e,9.0482,359.8732,151.5996,3.875964,0.1291619,0.44536661,352.7444,04/05.0/2016,2000,g 13.0,4.0
# From MPC 75726
217P/LINEAR,e,12.8561,125.4591,246.9543,3.954895,0.1253146,0.68759331,301.4011,04/05.0/2016,2000,g 12.0,4.0
# From MPC 95214
218P/LINEAR,e,2.7252,176.0203,59.6732,3.096021,0.1809248,0.62165640,62.9261,04/05.0/2016,2000,g 16.0,4.0
# From MPC 75727
219P/LINEAR,e,11.5291,231.0297,107.4213,3.651620,0.1412459,0.35229414,314.5625,04/05.0/2016,2000,g 11.0,4.0
# From MPC 96868
220P/McNaught,e,8.1252,150.1126,180.6527,3.115975,0.1791897,0.50133351,53.0902,04/05.0/2016,2000,g 15.0,4.0
# From MPC 93589
221P/LINEAR,e,11.4237,229.7506,39.9521,3.460348,0.1531174,0.49189894,41.0919,04/05.0/2016,2000,g 14.5,4.0
# From MPC 92277
222P/LINEAR,e,5.1784,6.7645,346.2407,2.880465,0.2016091,0.72396982,129.0070,04/05.0/2016,2000,g 20.0,4.0
# From MPC 75727
223P/Skiff,e,27.0171,346.8024,37.8868,4.154047,0.1164118,0.41479350,240.3459,04/05.0/2016,2000,g 12.0,4.0
# From MPC 75727
224P/LINEAR-NEAT,e,13.4259,40.4751,16.3226,3.412882,0.1563227,0.41594262,352.2440,04/05.0/2016,2000,g 15.5,4.0
# From MPC 75727
225P/LINEAR,e,21.3349,14.1825,3.9273,3.654641,0.1410707,0.63759164,341.1020,04/05.0/2016,2000,g 18.0,4.0
# From MPC 84322
226P/Pigott-LINEAR-Kowalski,e,44.0027,54.0084,341.1282,3.770599,0.1346135,0.52889962,339.3863,04/05.0/2016,2000,g 12.5,4.0
# From MPC 75727
227P/Catalina-LINEAR,e,6.5264,49.8014,90.2268,3.585605,0.1451645,0.50127576,295.6777,04/05.0/2016,2000,g 16.5,2.0
# From MPC 75728
228P/LINEAR,e,7.9110,31.0136,115.2225,4.176327,0.1154815,0.17814107,194.3768,04/05.0/2016,2000,g 14.5,2.0
# From MPC 75728
229P/Gibbs,e,26.0691,157.9074,224.1933,3.935128,0.1262600,0.37603749,308.1203,04/05.0/2016,2000,g 13.0,4.0
# From MPC 95735
230P/LINEAR,e,14.6527,112.3942,308.9292,3.399658,0.1572357,0.56309445,21.8420,04/05.0/2016,2000,g 13.0,4.0
# From MPC 75728
231P/LINEAR-NEAT,e,12.3303,133.0609,42.4563,4.022665,0.1221612,0.24799120,217.8168,04/05.0/2016,2000,g 14.5,2.0
# From MPC 75728
232P/Hill,e,14.6290,56.0518,53.6034,4.486617,0.1037112,0.33553017,246.2960,04/05.0/2016,2000,g 11.5,4.0
# From MPC 92986
233P/La Sagra,e,11.2790,74.9403,27.2325,3.032200,0.1866669,0.41100405,53.1280,04/05.0/2016,2000,g 15.0,4.0
# From MPC 82322
234P/LINEAR,e,11.5263,179.7231,358.1394,3.809013,0.1325823,0.25232366,303.9236,04/05.0/2016,2000,g 12.0,4.0
# From MPC 75728
235P/LINEAR,e,8.9033,204.4552,333.6419,3.992279,0.1235585,0.31520344,272.1330,04/05.0/2016,2000,g 12.0,4.0
# From MPC 75728
236P/LINEAR,e,16.3321,245.6737,119.2705,3.731987,0.1367080,0.50750912,278.7578,04/05.0/2016,2000,g 14.0,4.0
# From MPC 92277
237P/LINEAR,e,14.0216,245.4371,25.0167,3.510511,0.1498472,0.43456577,331.5851,04/05.0/2016,2000,g 14.5,2.0
# From MPC 89731
238P/Read,e,1.2647,51.6528,324.9677,3.165133,0.1750314,0.25246403,324.8711,04/05.0/2016,2000,g 14.5,4.0
# From MPC 75729
239P/LINEAR,e,11.3071,255.9638,220.3691,4.470147,0.1042849,0.63159431,254.6945,04/05.0/2016,2000,g 17.5,2.0
# From MPC 94676
240P/NEAT,e,23.5083,74.9454,352.1642,3.870508,0.1294351,0.44913548,260.1683,04/05.0/2016,2000,g 12.0,4.0
# From MPC 75729
241P/LINEAR,e,20.8721,305.7700,110.5543,4.956376,0.0893218,0.60903374,186.7408,04/05.0/2016,2000,g 13.5,4.0
# From MPC 81861
242P/Spahr,e,32.5216,180.7040,247.2286,5.490626,0.0766075,0.27591719,112.4212,04/05.0/2016,2000,g  8.0,4.0
# From MPC 82322
243P/NEAT,e,7.6407,87.6657,283.5679,3.829031,0.1315439,0.35863234,245.1043,04/05.0/2016,2000,g 12.5,4.0
# From MPC 88331
244P/Scotti,e,2.2580,354.1026,92.9005,4.895252,0.0910000,0.19765094,139.8463,04/05.0/2016,2000,g  9.0,4.0
# From MPC 75729
245P/WISE,e,21.2527,316.7814,316.8098,4.035215,0.1215917,0.45878208,277.9536,04/05.0/2016,2000,g 14.0,4.0
# From MPC 93589
246P/NEAT,e,15.9764,78.7499,175.9956,4.023449,0.1221255,0.28555453,141.9854,04/05.0/2016,2000,g 10.5,4.0
# From MPC 75729
247P/LINEAR,e,13.6630,54.0404,47.4821,3.968864,0.1246536,0.62548251,238.9818,04/05.0/2016,2000,g 16.5,2.0
# From MPC 75730
248P/Gibbs,e,6.3550,207.7869,210.1615,5.987448,0.0672731,0.63848350,126.8154,04/05.0/2016,2000,g 14.0,4.0
# From MPC 92986
249P/LINEAR,e,8.3938,239.1617,65.6240,2.763563,0.2145359,0.81943907,27.9534,04/05.0/2016,2000,g 15.5,4.0
# From MPC 75730
250P/Larson,e,13.2887,73.6953,45.0564,3.733070,0.1366485,0.40726767,268.7145,04/05.0/2016,2000,g 14.5,4.0
# From MPC 75730
251P/LINEAR,e,23.4167,219.4280,31.2090,3.504982,0.1502019,0.50603878,289.7628,04/05.0/2016,2000,g 16.5,2.0
# From MPC 99273
252P/LINEAR,e,10.4232,190.9519,343.3153,3.048359,0.1851846,0.67324261,3.8386,04/05.0/2016,2000,g 17.5,4.0
# From MPC 81473
253P/PANSTARRS,e,4.9405,146.8909,230.7431,3.468032,0.1526087,0.41248746,243.5554,04/05.0/2016,2000,g 14.5,4.0
# From MPC 81473
254P/McNaught,e,32.5417,129.7563,219.1244,4.626658,0.0990383,0.32010409,197.2020,04/05.0/2016,2000,g 11.0,4.0
# From NK 2214
255P/Levy,e,18.2560,279.7199,179.7050,3.038616,0.1860760,0.66791767,286.8651,04/05.0/2016,2000,g 20.0,4.0
# From MPC 84027
256P/LINEAR,e,27.6288,81.4073,124.1665,4.632079,0.0988644,0.41957925,110.1447,04/05.0/2016,2000,g 14.0,2.0
# From MPC 88332
